{
    "links": {
        "self": "http://www.neowsapp.com/rest/v1/neo/54016544?api_key=iIulBulltgU6a56xZRHN4H3l9WmuAYTsLGpBGhQ2"
    },
    "id": "54016544",
    "neo_reference_id": "54016544",
    "name": "(2020 HE)",
    "designation": "2020 HE",
    "nasa_jpl_url": "http://ssd.jpl.nasa.gov/sbdb.cgi?sstr=54016544",
    "absolute_magnitude_h": 23.729,
    "estimated_diameter": {
        "kilometers": {
            "estimated_diameter_min": 0.0477259934,
            "estimated_diameter_max": 0.1067185655
        },
        "meters": {
            "estimated_diameter_min": 47.7259933734,
            "estimated_diameter_max": 106.7185654766
        },
        "miles": {
            "estimated_diameter_min": 0.0296555482,
            "estimated_diameter_max": 0.0663118217
        },
        "feet": {
            "estimated_diameter_min": 156.5813480992,
            "estimated_diameter_max": 350.1265383583
        }
    },
    "is_potentially_hazardous_asteroid": false,
    "close_approach_data": [
        {
            "close_approach_date": "2020-04-11",
            "close_approach_date_full": "2020-Apr-11 18:57",
            "epoch_date_close_approach": 1586631420000,
            "relative_velocity": {
                "kilometers_per_second": "36.5486170823",
                "kilometers_per_hour": "131575.0214961281",
                "miles_per_hour": "81755.6015513025"
            },
            "miss_distance": {
                "astronomical": "0.0327063676",
                "lunar": "12.7227769964",
                "kilometers": "4892802.928397012",
                "miles": "3040246.7615902856"
            },
            "orbiting_body": "Earth"
        }
    ],
    "orbital_data": {
        "orbit_id": "4",
        "orbit_determination_date": "2020-04-23 07:00:34",
        "first_observation_date": "2020-04-16",
        "last_observation_date": "2020-04-22",
        "data_arc_in_days": 6,
        "observations_used": 41,
        "orbit_uncertainty": "9",
        "minimum_orbit_intersection": ".025323",
        "jupiter_tisserand_invariant": "2.507",
        "epoch_osculation": "2458959.5",
        "eccentricity": ".9417680777061974",
        "semi_major_axis": "2.514792042826874",
        "inclination": "20.48780570917125",
        "ascending_node_longitude": "206.7671015471876",
        "orbital_period": "1456.637690497852",
        "perihelion_distance": ".1464411748229676",
        "perihelion_argument": "216.29531032",
        "aphelion_distance": "4.88314291083078",
        "perihelion_time": "2458915.116919723272",
        "mean_anomaly": "10.96903437543287",
        "mean_motion": ".2471445043255463",
        "equinox": "J2000",
        "orbit_class": {
            "orbit_class_type": "APO",
            "orbit_class_description": "Near-Earth asteroid orbits which cross the Earth’s orbit similar to that of 1862 Apollo",
            "orbit_class_range": "a (semi-major axis) > 1.0 AU; q (perihelion) < 1.017 AU"
        }
    },
    "is_sentry_object": false
}